SatCatId,ObjectName,LaunchYear,OrbitalPeriod,LaunchMass,StatusCode,Inclination,Status,UcsData,OrbitClassEstimated,LaunchSiteCountry,Owner,UseType,Purpose,LaunchVehicleClass,TLE1,TLE2,MeanMotion,Eccentricity,OrbitClass
43034,LKW-1,2017,94.53,-1.0,+,97.28,Active,1,LEO,PRC,China,Military,Earth Observation,Long March,1 43034U 17077A   23032.46908733  .00007250  00000+0  30748-3 0  9994,2 43034  97.2752 102.5101 0002146 162.5361 317.1373 15.23403773287170,15.23403773,0.0002146,LEO
43039,ALCOMSAT 1,2017,1436.12,5225.0,+,0.04,Active,1,GSO,PRC,Algeria,Government,Communications,Long March,1 43039U 17078A   23032.42057774 -.00000183  00000+0  00000+0 0  9999,2 43039   0.0431 211.6026 0002754  92.6373 313.7095  1.00270180 18944,1.0027018,0.0002754,GEO
43055,GSAT0215 (GALILEO 19),2017,844.7,715.0,+,55.6,Active,1,MEO,French Guiana,ESA,Commercial,Navigation (Global or Regional Positioning),Ariane,1 43055U 17079A   23031.01863576  .00000049  00000+0  00000+0 0  9997,2 43055  55.6039 255.4570 0002010 344.4561  15.6077  1.70474071 31961,1.70474071,0.000201,MEO
43056,GSAT0216 (GALILEO 20),2017,844.7,715.0,+,55.6,Active,1,MEO,French Guiana,ESA,Commercial,Navigation (Global or Regional Positioning),Ariane,1 43056U 17079B   23031.89729525  .00000053  00000+0  00000+0 0  9994,2 43056  55.6035 255.4324 0003017 318.8208  41.2296  1.70474153 31998,1.70474153,0.0003017,MEO
43057,GSAT0217 (GALILEO 21),2017,844.7,715.0,+,55.6,Active,1,MEO,French Guiana,ESA,Commercial,Navigation (Global or Regional Positioning),Ariane,1 43057U 17079C   23030.94443371  .00000048  00000+0  00000+0 0  9996,2 43057  55.6023 255.4582 0003326 341.3156  18.7418  1.70474059 31965,1.70474059,0.0003326,MEO
43058,GSAT0218 (GALILEO 22),2017,844.7,715.0,+,55.6,Active,1,MEO,French Guiana,ESA,Commercial,Navigation (Global or Regional Positioning),Ariane,1 43058U 17079D   23029.99125821  .00000043  00000+0  00000+0 0  9992,2 43058  55.6027 255.4820 0003540 308.1848  51.8494  1.70474161 31979,1.70474161,0.000354,MEO
43065,GCOM-C (SHIKISAI),2017,100.89,2200.0,+,98.62,Active,1,LEO,Japan,Japan,Government,Earth Observation,H2A,1 43065U 17082A   23032.22662356  .00000144  00000+0  76677-4 0  9993,2 43065  98.6236 107.6824 0001190 102.3767 257.7547 14.27265622266209,14.27265622,0.000119,LEO
43070,IRIDIUM 135,2017,100.4,860.0,+,86.4,Active,1,LEO,USA,USA,Commercial/Government,Communications,Falcon,1 43070U 17083A   23032.31860930  .00000273  00000+0  90505-4 0  9997,2 43070  86.3976 116.9007 0001921  94.0443 266.0972 14.34219279267588,14.34219279,0.0001921,LEO
43071,IRIDIUM 138,2017,100.4,860.0,+,86.4,Active,1,LEO,USA,USA,Commercial/Government,Communications,Falcon,1 43071U 17083B   23032.27421440  .00000282  00000+0  93799-4 0  9990,2 43071  86.3965 116.6993 0002344  98.9998 261.1463 14.34219979267562,14.34219979,0.0002344,LEO
43072,IRIDIUM 116,2017,100.4,860.0,+,86.4,Active,1,LEO,USA,USA,Commercial/Government,Communications,Falcon,1 43072U 17083C   23032.31227486  .00000282  00000+0  93658-4 0  9994,2 43072  86.3975 116.9039 0002007 102.0918 258.0502 14.34218612267600,14.34218612,0.0002007,LEO
43073,IRIDIUM 130,2017,100.4,860.0,+,86.4,Active,1,LEO,USA,USA,Commercial/Government,Communications,Falcon,1 43073U 17083D   23032.28054576  .00000280  00000+0  92830-4 0  9998,2 43073  86.3986 117.0725 0002272 100.5883 259.5569 14.34219883267548,14.34219883,0.0002272,LEO
43074,IRIDIUM 151,2017,100.4,860.0,+,86.4,Active,1,LEO,USA,USA,Commercial/Government,Communications,Falcon,1 43074U 17083E   23032.32495258  .00000278  00000+0  92296-4 0  9993,2 43074  86.3977 116.9283 0002029 103.0876 257.0546 14.34220324267579,14.34220324,0.0002029,LEO
43075,IRIDIUM 134,2017,100.4,860.0,+,86.4,Active,1,LEO,USA,USA,Commercial/Government,Communications,Falcon,1 43075U 17083F   23032.29324197  .00000281  00000+0  93297-4 0  9999,2 43075  86.3978 116.9324 0002264  91.7591 268.3864 14.34219520267535,14.3421952,0.0002264,LEO
43076,IRIDIUM 137,2017,100.4,860.0,+,86.4,Active,1,LEO,USA,USA,Commercial/Government,Communications,Falcon,1 43076U 17083G   23032.30591319  .00000285  00000+0  94637-4 0  9997,2 43076  86.3981 116.9963 0002004 100.7203 259.4219 14.34218983267607,14.34218983,0.0002004,LEO
43077,IRIDIUM 141,2017,100.4,860.0,+,86.4,Active,1,LEO,USA,USA,Commercial/Government,Communications,Falcon,1 43077U 17083H   23032.29958213  .00000281  00000+0  93431-4 0  9993,2 43077  86.3975 116.8984 0002244 100.5360 259.6089 14.34220036267600,14.34220036,0.0002244,LEO
43078,IRIDIUM 153,2017,100.4,860.0,+,86.39,Active,1,LEO,USA,USA,Commercial/Government,Communications,Falcon,1 43078U 17083J   23032.53081601  .00000257  00000+0  84797-4 0  9997,2 43078  86.3939  85.2241 0002506  99.4998 260.6481 14.34223368268745,14.34223368,0.0002506,LEO
43079,IRIDIUM 131,2017,100.4,860.0,+,86.4,Active,1,LEO,USA,USA,Commercial/Government,Communications,Falcon,1 43079U 17083K   23032.28690321  .00000283  00000+0  93820-4 0  9991,2 43079  86.3983 117.0075 0002306  99.0251 261.1206 14.34218763267530,14.34218763,0.0002306,LEO
43080,LKW-2,2017,94.53,-1.0,+,97.28,Active,1,LEO,PRC,China,Military,Earth Observation,Long March,1 43080U 17084A   23032.57714184  .00007358  00000+0  31301-3 0  9995,2 43080  97.2848 104.6521 0001574 178.4636 317.5914 15.23295673284148,15.23295673,0.0001574,LEO
43081,YAOGAN-30 G,2017,96.56,-1.0,+,35.0,Active,1,LEO,PRC,China,Military,Earth Observation,Long March,1 43081U 17085A   23032.41581140  .00002918  00000+0  28954-3 0  9991,2 43081  34.9995  31.5810 0005394 260.1447  99.8616 14.91370929278102,14.91370929,0.0005394,LEO
43082,YAOGAN-30 H,2017,96.55,-1.0,+,35.0,Active,1,LEO,PRC,China,Military,Earth Observation,Long March,1 43082U 17085B   23032.43835485  .00004632  00000+0  45767-3 0  9994,2 43082  34.9968  31.6239 0003361 107.3967 252.7153 14.91402352278102,14.91402352,0.0003361,LEO
43083,YAOGAN-30 J,2017,96.56,-1.0,+,35.0,Active,1,LEO,PRC,China,Military,Earth Observation,Long March,1 43083U 17085C   23032.45922561  .00002898  00000+0  28758-3 0  9992,2 43083  34.9992  31.8548 0006777 250.9759 109.0212 14.91357614278114,14.91357614,0.0006777,LEO
43087,ANGOSAT 1,2017,1448.96,-1.0,-,4.46,Inactive,0,GSO,Kazakhstan,Angola,Unknown,Unknown,Zenit,1 43087U 17086A   23032.55915019 -.00000004  00000+0  00000+0 0  9992,2 43087   4.4634  80.9979 0015947 142.6422 305.0316  0.99381759 18495,0.99381759,0.0015947,GSO
43099,SUPERVIEW-1 03,2018,94.72,560.0,+,97.42,Active,1,LEO,PRC,China,Commercial,Earth Observation,Long March,1 43099U 18002A   23032.52048822  .00008210  00000+0  38160-3 0  9998,2 43099  97.4229 112.2603 0005942  38.8757  19.0079 15.20219857280065,15.20219857,0.0005942,LEO
43100,SUPERVIEW-1 04,2018,94.72,560.0,+,97.42,Active,1,LEO,PRC,China,Commercial,Earth Observation,Long March,1 43100U 18002B   23032.50575412  .00008158  00000+0  37916-3 0  9998,2 43100  97.4241 112.4386 0000841  28.5029  28.1406 15.20239214280067,15.20239214,8.41e-05,LEO
43107,BEIDOU-3 M3,2018,773.23,800.0,+,55.23,Active,1,MEO,PRC,China,Government/Military,Navigation (Global or Regional Positioning),Long March,1 43107U 18003A   23032.26528419 -.00000116  00000+0  00000+0 0  9991,2 43107  55.2274 344.8470 0004140  42.7725 101.3123  1.86232351 34412,1.86232351,0.000414,MEO
43108,BEIDOU-3 M4,2018,773.23,800.0,+,55.22,Active,1,MEO,PRC,China,Government/Military,Navigation (Global or Regional Positioning),Long March,1 43108U 18003B   23031.10192583 -.00000117  00000+0  00000+0 0  9994,2 43108  55.2234 344.8752 0004083 271.7741 214.9476  1.86230823 34391,1.86230823,0.0004083,MEO
43111,CARTOSAT-2F,2018,94.78,712.0,+,97.42,Active,1,LEO,India,India,Government,Earth Observation,PSLV,1 43111U 18004A   23032.50682536  .00005051  00000+0  24218-3 0  9998,2 43111  97.4196  94.3603 0004207 325.1740 145.1037 15.19339224280323,15.19339224,0.0004207,LEO
43113,LEO VANTAGE 1,2018,98.96,100.0,P,99.24,Active,1,LEO,India,USA,Commercial,Communications,PSLV,1 43113U 18004C   23032.31181846  .00005286  00000+0  42194-3 0  9990,2 43113  99.2408 141.9252 0396369 223.1783 133.7699 14.55110818257503,14.55110818,0.0396369,LEO
43114,ICEYE-X1,2018,93.81,-1.0,+,97.34,Active,0,LEO,India,Finland,Unknown,Unknown,PSLV,1 43114U 18004D   23032.16645508  .00020478  00000+0  60297-3 0  9998,2 43114  97.3398 108.2998 0006619 256.7174 103.3331 15.35062464281231,15.35062464,0.0006619,LEO
43115,CARBONITE 2,2018,94.27,-1.0,+,97.33,Active,1,LEO,India,UK,Commercial,Technology Development,PSLV,1 43115U 18004E   23032.15826078  .00006639  00000+0  24968-3 0  9999,2 43115  97.3346 103.9023 0007506 272.6810  87.3571 15.27450992280982,15.27450992,0.0007506,LEO
43116,INS-1C,2018,93.63,5.0,+,97.35,Active,1,LEO,India,India,Government,Technology Development,PSLV,1 43116U 18004F   23032.22376605  .00026285  00000+0  70361-3 0  9991,2 43116  97.3535 112.3564 0006077 255.1724 104.8848 15.37992737281385,15.37992737,0.0006077,LEO
43118,CORVUS BC3,2018,93.99,10.0,+,97.34,Active,1,LEO,India,USA,Commercial,Earth Observation,PSLV,1 43118U 18004H   23032.19982290  .00013471  00000+0  43774-3 0  9993,2 43118  97.3388 107.2439 0007154 272.3342  87.7080 15.32010816281179,15.32010816,0.0007154,LEO
43119,FLOCK 3P'-3,2018,93.71,4.0,+,97.35,Active,1,LEO,India,USA,Commercial,Earth Observation,PSLV,1 43119U 18004J   23032.44199680  .00046609  00000+0  13004-2 0  9996,2 43119  97.3485 109.4107 0007222 276.2474  83.7947 15.36574666281225,15.36574666,0.0007222,LEO
43120,FLOCK 3P'-2,2018,93.87,4.0,+,97.35,Active,1,LEO,India,USA,Commercial,Earth Observation,PSLV,1 43120U 18004K   23032.17125481  .00033908  00000+0  10260-2 0  9995,2 43120  97.3524 108.5154 0007225 279.9313  80.1114 15.34093653281135,15.34093653,0.0007225,LEO
43121,FLOCK 3P'-1,2018,92.38,-1.0,-,97.36,Inactive,0,LEO,India,USA,Unknown,Unknown,PSLV,1 43121U 18004L   23032.50723051  .00108434  00000+0  13824-2 0  9996,2 43121  97.3586 119.1106 0005376 254.4103 105.6560 15.58928272281788,15.58928272,0.0005376,LEO
